CCSDS_OMM_VERS,COMMENT,CREATION_DATE,ORIGINATOR,OBJECT_NAME,OBJECT_ID,CENTER_NAME,REF_FRAME,TIME_SYSTEM,MEAN_ELEMENT_THEORY,EPOCH,MEAN_MOTION,ECCENTRICITY,INCLINATION,RA_OF_ASC_NODE,ARG_OF_PERICENTER,MEAN_ANOMALY,EPHEMERIS_TYPE,CLASSIFICATION_TYPE,NORAD_CAT_ID,ELEMENT_SET_NO,REV_AT_EPOCH,BSTAR,MEAN_MOTION_DOT,MEAN_MOTION_DDOT,SEMIMAJOR_AXIS,PERIOD,APOAPSIS,PERIAPSIS,OBJECT_TYPE,RCS_SIZE,COUNTRY_CODE,LAUNCH_DATE,SITE,DECAY_DATE,FILE,GP_ID,TLE_LINE0,TLE_LINE1,TLE_LINE2,NORAD_KEY,JCAT,DeepCat,Satcat,Piece,Active,Type,Name,LDate,Parent,Owner,State,SDate,ExpandedStatus,DDate,ODate,Period,Perigee,PF,Apogee,AF,Inc,IF,OpOrbit,SATCAT_KEY,DENSITY_SCORE
3.0,GENERATED VIA SPACE-TRACK.ORG API,2026-05-06T10:08:52,18 SPCS,EUTE 1-F2 (ECS 2),1984-081A,EARTH,TEME,UTC,SGP4,2026-05-05T21:33:18.887328,0.9879837,0.00080323,12.5431,333.217,230.5324,304.904,0,U,15158,999,11684,0.0,-2.23e-06,0.0,42582.909,1457.514,36238.978,36170.569,PAYLOAD,LARGE,EUTE,1984-08-04,FRGUI,,5176958,322262379,0 EUTE 1-F2 (ECS 2),1 15158U 84081A   26125.89813527 -.00000223  00000-0  00000-0 0  9998,2 15158  12.5431 333.2170 0008032 230.5324 304.9040  0.98798370116840,15158,S15158,-,15158,1984-081A,P,P,ECS 2,1984 Aug  4,S15166,EUTSA,F,1984 Aug  4 1351,In Earth orbit,-,2026 May  4 ,1457.51,36170, ,36238, ,12.54, ,GEO/ID,15158,1.8203388905450892
3.0,GENERATED VIA SPACE-TRACK.ORG API,2026-05-06T14:56:52,18 SPCS,PAS 1,1988-051C,EARTH,TEME,UTC,SGP4,2026-05-06T06:27:04.149792,0.99393404,0.0003262,14.5522,4.9737,356.9154,351.5623,0,U,19217,999,14775,0.0,3.6e-07,0.0,42412.786,1448.788,36048.486,36020.816,PAYLOAD,LARGE,US,1988-06-15,FRGUI,,5177392,322302771,0 PAS 1,1 19217U 88051C   26126.26879803  .00000036  00000-0  00000+0 0  9990,2 19217  14.5522   4.9737 0003262 356.9154 351.5623  0.99393404147757,19217,S19217,-,19217,1988-051C,P,P,PAS 1,1988 Jun 15,S19218,SESINTU,US,1988 Jun 15 1142,In Earth orbit,-,2026 May  5 ,1448.794,36020, ,36048, ,14.55, ,GEO/ID,19217,1.820705271252991
3.0,GENERATED VIA SPACE-TRACK.ORG API,2026-05-06T02:32:52,18 SPCS,SKYNET 4D,1998-002A,EARTH,TEME,UTC,SGP4,2026-05-05T21:21:14.165856,0.99150423,0.00025885,12.7843,11.0399,163.3132,83.3873,0,U,25134,999,10295,0.0,4.6e-07,0.0,42482.049,1452.339,36114.911,36092.918,PAYLOAD,LARGE,UK,1998-01-10,AFETR,,5176277,322216575,0 SKYNET 4D,1 25134U 98002A   26125.88974729  .00000046  00000-0  00000-0 0  9994,2 25134  12.7843  11.0399 0002588 163.3132  83.3873  0.99150423102959,25134,S25134,-,25134,1998-002A,P,P,Skynet 4D,1998 Jan 10,S25136,PARA,UK,1998 Jan 10 0145,In Earth orbit,-,2026 May  4 ,1452.34,36093, ,36114, ,12.78, ,GEO/ID,25134,1.8240072491175496
3.0,GENERATED VIA SPACE-TRACK.ORG API,2026-05-06T15:06:46,18 SPCS,INSAT 4CR,2007-037A,EARTH,TEME,UTC,SGP4,2026-05-06T13:39:04.478112,0.99216268,0.0001497,6.7611,70.3263,297.7387,126.3909,0,U,32050,999,5076,0.0,9.7e-07,0.0,42463.252,1451.375,36091.474,36078.76,PAYLOAD,LARGE,IND,2007-09-02,SRI,,5177782,322312554,0 INSAT 4CR,1 32050U 07037A   26126.56880183  .00000097  00000-0  00000+0 0  9998,2 32050   6.7611  70.3263 0001497 297.7387 126.3909  0.99216268 50769,32050,S32050,-,32050,2007-037A,P,P,Insat 4CR,2007 Sep  2,S32051,ISRO,IN,2007 Sep  2 1306,In Earth orbit,-,2026 May  4 ,1451.378,36078, ,36091, ,6.76, ,GEO/ID,32050,1.825567378857403
3.0,GENERATED VIA SPACE-TRACK.ORG API,2026-05-06T02:32:52,18 SPCS,COSMOS 2440,2008-033A,EARTH,TEME,UTC,SGP4,2026-05-05T18:56:49.675776,1.0027118,0.00038182,10.503,41.4484,217.4558,329.1399,0,U,33108,999,6536,0.0,-1.41e-06,0.0,42164.902,1436.106,35802.866,35770.667,PAYLOAD,LARGE,CIS,2008-06-27,TTMTR,,5176277,322220462,0 COSMOS 2440,1 33108U 08033A   26125.78946384 -.00000141  00000-0  00000-0 0  9991,2 33108  10.5030  41.4484 0003818 217.4558 329.1399  1.00271180 65369,33108,S33108,-,33108,2008-033A,P,P,Kosmos-2440,2008 Jun 26,S33111,PVO,RU,2008 Jun 27 0737,In Earth orbit,-,2026 May  3 ,1436.102,35770, ,35802, ,10.5, ,GEO/I,33108,1.8267820401333286
3.0,GENERATED VIA SPACE-TRACK.ORG API,2026-05-06T14:56:52,18 SPCS,ECHOSTAR 2,1996-055A,EARTH,TEME,UTC,SGP4,2026-05-06T05:52:59.917152,1.00342272,0.001065,11.9016,31.8988,85.8961,107.9786,0,U,24313,999,10859,0.0,-2.14e-06,0.0,42144.983,1435.088,35811.733,35721.964,PAYLOAD,LARGE,US,1996-09-11,FRGUI,,5177531,322306515,0 ECHOSTAR 2,1 24313U 96055A   26126.24513793 -.00000214  00000-0  00000+0 0  9996,2 24313  11.9016  31.8988 0010650  85.8961 107.9786  1.00342272108591,24313,S24313,-,24313,1996-055A,P,P,Echostar II,1996 Sep 11,S24314,DISHE,US,1996 Sep 11 0021,In Earth orbit,-,2026 May  5 ,1435.085,35722, ,35811, ,11.9, ,GEO/ID,24313,1.8270404089154462
3.0,GENERATED VIA SPACE-TRACK.ORG API,2026-05-06T14:56:52,18 SPCS,BS-2B (YURI 2B),1986-016A,EARTH,TEME,UTC,SGP4,2026-05-06T07:11:37.376160,0.99293141,0.0011841,12.317,332.5863,226.8522,322.1123,0,U,16597,999,12770,0.0,-7.5e-07,0.0,42441.332,1450.251,36113.452,36012.943,PAYLOAD,LARGE,JPN,1986-02-12,TNSTA,,5177379,322302127,0 BS-2B (YURI 2B),1 16597U 86016A   26126.29973815 -.00000075  00000-0  00000+0 0  9992,2 16597  12.3170 332.5863 0011841 226.8522 322.1123  0.99293141127705,16597,S16597,-,16597,1986-016A,P,P,Yuri 2B,1986 Feb 12,S16600,JAXA,J,1986 Feb 12 0822,In Earth orbit,-,2026 May  5 ,1450.257,36013, ,36113, ,12.32, ,GEO/ID,16597,1.8298000646363253
3.0,GENERATED VIA SPACE-TRACK.ORG API,2026-05-06T14:56:52,18 SPCS,ASTRA 1F,1996-021A,EARTH,TEME,UTC,SGP4,2026-05-06T09:18:02.381184,0.99118606,4.01e-05,5.3164,74.3567,159.7123,42.1676,0,U,23842,999,5168,0.0,-3.5e-07,0.0,42491.14,1452.805,36114.709,36111.301,PAYLOAD,LARGE,SES,1996-04-08,TTMTR,,5177521,322306382,0 ASTRA 1F,1 23842U 96021A   26126.38752756 -.00000035  00000-0  00000+0 0  9995,2 23842   5.3164  74.3567 0000401 159.7123  42.1676  0.99118606 51681,23842,S23842,-,23842,1996-021A,P,P      G,Astra 1F,1996 Apr  8,S23845,SESSA,L,1996 Apr  9 0550,In Earth orbit,-,2026 May  5 ,1452.8,36111, ,36114, ,5.31, ,GEO/ID,23842,1.8314359216405034
3.0,GENERATED VIA SPACE-TRACK.ORG API,2026-05-06T14:46:56,18 SPCS,NAHUEL I1 (ANIK C1),1985-028B,EARTH,TEME,UTC,SGP4,2026-05-06T06:11:38.620032,0.99659979,0.0013029,14.7722,352.4526,145.1398,58.9329,0,U,15642,999,4597,0.0,4.8e-07,0.0,42337.12,1444.913,36014.146,35903.824,PAYLOAD,LARGE,ARGN,1985-04-12,AFETR,,5177280,322300361,0 NAHUEL I1 (ANIK C1),1 15642U 85028B   26126.25808588  .00000048  00000-0  00000+0 0  9993,2 15642  14.7722 352.4526 0013029 145.1398  58.9329  0.99659979 45970,15642,S15642,-,15642,1985-028B,P,P ---S-,Brasil 1(T),1985 Apr 12,S15644,TSKYBR,BR,1985 Apr 13 0026,In Earth orbit,-,2026 May  4 ,1444.916,35904, ,36013, ,14.77, ,GEO/ID,15642,1.8359028898973144
3.0,GENERATED VIA SPACE-TRACK.ORG API,2026-05-06T14:56:52,18 SPCS,DFS 2,1990-063B,EARTH,TEME,UTC,SGP4,2026-05-06T09:40:37.713792,0.99553289,0.0006337,14.5586,3.9597,280.9763,75.9421,0,U,20706,999,12250,0.0,-1.92e-06,0.0,42367.363,1446.462,36016.076,35962.38,PAYLOAD,LARGE,GER,1990-07-24,FRGUI,,5177420,322303120,0 DFS 2,1 20706U 90063B   26126.40321428 -.00000192  00000-0  00000+0 0  9996,2 20706  14.5586   3.9597 0006337 280.9763  75.9421  0.99553289122501,20706,S20706,-,20706,1990-063B,P,P,Kopernikus 2,1990 Jul 24,S20717,DBP,D,1990 Jul 24 2249,In Earth orbit,-,2026 May  4 ,1446.463,35962, ,36016, ,14.56, ,GEO/ID,20706,1.8359297653640414
3.0,GENERATED VIA SPACE-TRACK.ORG API,2026-05-06T07:56:53,18 SPCS,NSTAR A,1995-044A,EARTH,TEME,UTC,SGP4,2026-05-05T22:08:38.655168,0.99130176,0.0023577,13.1595,21.6419,8.9546,181.8274,0,U,23651,999,11149,0.0,-8.6e-07,0.0,42487.834,1452.635,36209.872,36009.525,PAYLOAD,LARGE,JPN,1995-08-29,FRGUI,,5176704,322253194,0 NSTAR A,1 23651U 95044A   26125.92266962 -.00000086  00000-0  00000+0 0  9991,2 23651  13.1595  21.6419 0023577   8.9546 181.8274  0.99130176111495,23651,S23651,-,23651,1995-044A,P,P,N-STAR a,1995 Aug 29,S23652,NTT,J,1995 Aug 29 0702,In Earth orbit,-,2026 May  4 ,1452.641,36009, ,36209, ,13.16, ,GEO/ID,23651,1.8365882760874281
3.0,GENERATED VIA SPACE-TRACK.ORG API,2026-05-06T10:08:52,18 SPCS,COSMOS 2319,1995-045A,EARTH,TEME,UTC,SGP4,2026-05-06T01:40:26.051808,1.00174789,0.00057004,14.3576,353.0379,267.7813,96.1411,0,U,23653,999,11237,0.0,-3.44e-06,0.0,42191.945,1437.487,35837.861,35789.759,PAYLOAD,LARGE,CIS,1995-08-30,TTMTR,,5176958,322265121,0 COSMOS 2319,1 23653U 95045A   26126.06974597 -.00000344  00000-0  00000-0 0  9998,2 23653  14.3576 353.0379 0005700 267.7813  96.1411  1.00174789112376,23653,S23653,-,23653,1995-045A,P,P,Kosmos-2319,1995 Aug 30,S23656,VVKOV,RU,1995 Aug 31 0210?,In Earth orbit,-,2026 May  5 ,1437.48,35789, ,35837, ,14.36, ,GEO/ID,23653,1.8395462852663134
3.0,GENERATED VIA SPACE-TRACK.ORG API,2026-05-06T10:08:52,18 SPCS,EKRAN 11,1983-100A,EARTH,TEME,UTC,SGP4,2026-05-05T22:40:40.593792,1.00288818,0.00029028,7.8604,304.8351,357.0522,2.8566,0,U,14377,999,4695,0.0,-3.15e-06,0.0,42159.958,1435.853,35794.061,35769.584,PAYLOAD,LARGE,CIS,1983-09-29,TTMTR,,5176958,322262275,0 EKRAN 11,1 14377U 83100A   26125.94491428 -.00000315  00000-0  00000-0 0  9991,2 14377   7.8604 304.8351 0002903 357.0522   2.8566  1.00288818 46958,14377,S14377,-,14377,1983-100A,P,P,Ekran,1983 Sep 29,S14394,KS,SU,1983 Sep 30 0014?,In Earth orbit,-,2026 May  4 ,1435.845,35769, ,35794, ,7.86, ,GEO/I,14377,1.8395901938447223
3.0,GENERATED VIA SPACE-TRACK.ORG API,2026-05-06T15:06:46,18 SPCS,ANIK F1,2000-076A,EARTH,TEME,UTC,SGP4,2026-05-06T12:46:06.260160,0.98956777,0.0006883,5.0901,75.3034,212.0838,8.0553,0,U,26624,999,4265,0.0,7.4e-07,0.0,42537.453,1455.181,36188.596,36130.039,PAYLOAD,LARGE,CA,2000-11-21,FRGUI,,5177722,322311272,0 ANIK F1,1 26624U 00076A   26126.53201690  .00000074  00000-0  00000+0 0  9996,2 26624   5.0901  75.3034 0006883 212.0838   8.0553  0.98956777 42654,26624,S26624,-,26624,2000-076A,P,P,Anik F1,2000 Nov 21,S26625,TCANL,CA,2000 Nov 22 0017,In Earth orbit,-,2026 May  5 ,1455.183,36129, ,36188, ,5.09, ,GEO/ID,26624,1.842138186897334
